CAS-2T & KS-1Q          
1 41847U 16066G   20341.75790158  .00000166  00000-0  34406-4 0  9999
2 41847  98.6314  33.8032 0366546  75.3918 288.7611 14.38122799214184
NAYIF-1 (EO-88)         
1 42017U 17008BX  20341.92151094  .00004079  00000-0  15584-3 0  9997
2 42017  97.3413  46.8364 0007699  76.5609 283.6488 15.27158570211866
ZHUHAI-1 02 (CAS-4B)    
1 42759U 17034B   20342.54630476  .00000682  00000-0  54650-4 0  9998
2 42759  43.0168 155.9383 0009871  33.5263  69.2032 15.09989483192136
ZHUHAI-1 01 (CAS-4A)    
1 42761U 17034D   20342.48030697  .00000671  00000-0  53902-4 0  9990
2 42761  43.0166 155.4865 0010369  34.8231  61.2147 15.10069229192127
MAX VALIER SAT          
1 42778U 17036P   20341.70453078  .00002381  00000-0  10391-3 0  9990
2 42778  97.2834  30.3909 0013411 131.2616 228.9779 15.23017787191946
RADFXSAT (FOX-1B)       
1 43017U 17073E   20341.56611627  .00001008  00000-0  83635-4 0  9995
2 43017  97.7166 247.1004 0255316 209.1733 149.5016 14.79197452164600
FOX-1D (AO-92)          
1 43137U 18004AC  20341.87118502  .00002841  00000-0  11813-3 0  9995
2 43137  97.4292  51.7339 0009515 160.0611 200.1001 15.24572423161306
DIWATA-2B               
1 43678U 18084H   20342.54330163 -.00000124  00000-0 -65979-5 0  9995
2 43678  97.9037 101.1468 0009259 333.3418  26.7317 14.91679182114826
ES'HAIL 2               
1 43700U 18090A   20342.45535571  .00000156  00000-0  00000+0 0  9999
2 43700   0.0168 346.9824 0001639 299.4533 339.9647  1.00269357  7686
FOX-1CLIFF (AO-95)      
1 43770U 18099N   20341.65044497  .00000380  00000-0  39800-4 0  9992
2 43770  97.6893  49.8757 0014114 347.6083  12.4789 14.95124932109648
ITASAT 1                
1 43786U 18099AE  20341.67613886  .00000992  00000-0  94785-4 0  9997
2 43786  97.6911  50.4435 0014462 340.8173  19.2501 14.95446112109675
JY1SAT (JO-97)          
1 43803U 18099AX  20342.47191161  .00001051  00000-0  99521-4 0  9993
2 43803  97.6869  51.0053 0014325 338.0381  22.0224 14.95651310109793
PSAT2 (NO-104)          
1 44354U 19036R   20341.65945103  .00027827  00000-0  39497-3 0  9993
2 44354  28.5307 326.8761 0347698 354.7444   4.9556 15.07735613 79786
BRICSAT2 (NO-103)       
1 44355U 19036S   20341.60188427  .00048042  00000-0  61500-3 0  9999
2 44355  28.5284 306.7664 0310705  27.4383 334.2256 15.17301871 79989
JAISAT-1                
1 44419U 19038F   20341.71482785  .00002687  00000-0  15457-3 0  9993
2 44419  97.5629 301.5426 0019654 256.1417 103.7627 15.13177189 78648
DUCHIFAT-3              
1 44854U 19089C   20342.20193657  .00000930  00000-0  81237-4 0  9993
2 44854  36.9636 157.3400 0009011  11.4440 348.6504 14.99237241 54231
RS-44 & BREEZE-KM R/B   
1 44909U 19096E   20341.82921037  .00000015  00000-0  13464-4 0  9991
2 44909  82.5229 240.7682 0217221 183.2200 176.7518 12.79707715 44230
ORBITAL FACTORY 2 (OF-2)
1 45113U 19071C   20341.76639368  .00006555  00000-0  20520-3 0  9993
2 45113  51.6420 250.7222 0011951 320.6495  39.3618 15.34295470 47573
HUSKYSAT-1              
1 45119U 19071J   20341.91872801  .00004453  00000-0  14246-3 0  9990
2 45119  51.6413 249.4893 0011248 318.1015  41.9105 15.34440725 47596
BY70-2                  
1 45857U 20042B   20342.42005224  .00002042  00000-0  30005-3 0  9996
2 45857  98.0015  54.0842 0012596 112.1641 248.0879 14.76521973 23206
SALSAT                  
1 46495U 20068K   20341.90689608  .00001464  00000-0  11227-3 0  9991
2 46495  97.6746 274.7643 0017869   6.9432 353.2038 15.03277662 10405
BY70-3                  
1 46839U 20079N   20342.48748032  .00005090  00000-0  16511-3 0  9996
2 46839  97.2626  54.1095 0007918 162.3298 325.9871 15.32387945  4796
